OBJECT_NAME,OBJECT_ID,EPOCH,MEAN_MOTION,ECCENTRICITY,INCLINATION,RA_OF_ASC_NODE,ARG_OF_PERICENTER,MEAN_ANOMALY,EPHEMERIS_TYPE,CLASSIFICATION_TYPE,NORAD_CAT_ID,ELEMENT_SET_NO,REV_AT_EPOCH,BSTAR,MEAN_MOTION_DOT,MEAN_MOTION_DDOT
STARLINK-30518,2023-156B,2026-07-23T20:00:01.999008,15.34370842,.0000661,53.1595,165.8174,112.6266,220.2693,0,U,58029,999,579,.16756E-2,.56612E-3,0
STARLINK-30549,2023-156C,2026-07-23T20:55:19.390944,15.31440293,.0001461,53.1599,165.8161,87.0511,273.0658,0,U,58030,999,15711,.79657E-2,.253323E-2,0
STARLINK-30556,2023-156D,2026-07-23T08:18:24.197760,15.34394272,.0001292,53.1601,175.9186,97.0573,263.0576,0,U,58031,999,15696,.70061E-5,-.14E-5,0
STARLINK-30561,2023-156E,2026-07-23T07:48:49.881312,15.34394201,.0001609,53.1620,168.1009,81.1562,278.9622,0,U,58032,999,15708,.24368E-4,.447E-5,0
STARLINK-30562,2023-156F,2026-07-23T12:34:00.690240,15.30185393,.0001424,53.1572,256.9564,91.6190,268.4974,0,U,58033,999,15583,-.13657E-4,-.763E-5,0
STARLINK-30565,2023-156G,2026-07-23T04:32:09.530016,15.34379900,.00016511,53.1629,168.6773,86.9169,273.2023,0,U,58034,999,15706,.96636409E-4,.2888E-4,0
STARLINK-30438,2023-156H,2026-07-23T21:31:27.496128,15.30194308,.0001183,53.1593,165.4372,87.4553,272.6583,0,U,58035,999,15712,.12422E-3,.3321E-4,0
STARLINK-30437,2023-156J,2026-07-23T04:29:00.784896,15.30197125,.00014058,53.1600,168.8251,107.7075,252.4079,0,U,58036,999,15701,-.15369325E-4,-.814E-5,0
STARLINK-30533,2023-156K,2026-07-23T07:53:36.377664,15.34400566,.0001094,53.1579,256.4479,90.3780,269.7348,0,U,58037,999,15582,.94976E-3,.3185E-3,0
STARLINK-30560,2023-156L,2026-07-23T06:26:27.856608,15.30200441,.0001448,53.1602,165.7806,107.5333,252.5826,0,U,58038,999,15706,-.38881E-5,-.474E-5,0
STARLINK-30555,2023-156N,2026-07-23T13:17:18.929184,15.34368453,.0000894,53.1585,255.0270,95.1487,264.9618,0,U,58040,999,15586,-.89145E-4,-.3383E-4,0
STARLINK-30542,2023-156P,2026-07-23T20:52:28.299072,15.34387528,.000147,53.1616,165.4419,78.7475,281.3693,0,U,58041,999,15716,-.1268E-6,-.381E-5,0
STARLINK-30563,2023-156Q,2026-07-23T21:23:00.957120,15.30201938,.0001255,53.1595,163.1137,86.4846,273.6298,0,U,58042,999,15720,.12807E-3,.3436E-4,0
STARLINK-30564,2023-156R,2026-07-23T20:00:01.999008,15.33501671,.0001174,53.1589,166.0324,76.5782,54.5518,0,U,58043,999,580,.14205E-2,.46565E-3,0
STARLINK-30547,2023-156S,2026-07-23T13:41:31.600032,15.34383736,.0001122,53.1594,255.0842,75.3182,284.7945,0,U,58044,999,15586,-.18344E-4,-.995E-5,0
STARLINK-30550,2023-156T,2026-07-23T16:06:30.020256,15.34381004,.0002031,53.1604,88.4159,92.4291,267.6944,0,U,58045,999,15821,-.27749E-4,-.1314E-4,0
STARLINK-30548,2023-156U,2026-07-23T13:08:12.109632,15.34387376,.0001095,53.1574,254.9891,76.1462,283.9662,0,U,58046,999,15581,-.71224E-5,-.617E-5,0
STARLINK-30529,2023-156V,2026-07-23T08:21:30.173760,15.34316437,.0001334,53.1596,257.9861,130.3474,229.7645,0,U,58047,999,15575,-.12402E-2,-.41936E-3,0
STARLINK-30554,2023-156W,2026-07-23T20:00:01.999008,15.33577884,.0001212,53.1593,255.6073,91.4813,134.8936,0,U,58048,999,580,-.69106E-3,-.23051E-3,0
STARLINK-30568,2023-158A,2026-07-23T10:07:07.288032,15.27557226,.0001833,43.0067,340.9132,176.1255,183.9612,0,U,58051,999,15431,.23567E-4,.386E-5,0
STARLINK-30575,2023-158B,2026-07-23T10:01:34.332672,15.27574195,.0001024,43.0022,340.8895,272.8960,87.1775,0,U,58052,999,15432,-.38527E-4,-.1322E-4,0
STARLINK-30577,2023-158C,2026-07-23T10:49:28.003584,15.27569560,.000113,43.0026,340.2623,257.3648,102.7077,0,U,58053,999,15433,.16276E-4,.186E-5,0
STARLINK-30566,2023-158D,2026-07-23T16:55:01.555968,15.27538267,.0001659,43.0023,338.7478,295.1514,64.9165,0,U,58054,999,15437,.1349E-2,.36999E-3,0
STARLINK-30544,2023-158E,2026-07-23T10:21:42.780096,15.27572629,.0002902,43.0045,340.1361,296.0318,64.0235,0,U,58055,999,15433,-.30112E-4,-.1091E-4,0
STARLINK-30553,2023-158F,2026-07-23T16:58:41.780064,15.27573451,.0001182,43.0036,338.7629,252.4037,107.6686,0,U,58056,999,15437,-.30608E-5,-.346E-5,0
STARLINK-30541,2023-158G,2026-07-23T16:49:26.591808,15.27571817,.0001222,43.0030,338.7153,224.7936,135.2817,0,U,58057,999,15437,-.27759E-4,-.1026E-4,0
STARLINK-30573,2023-158H,2026-07-23T10:47:35.951424,15.27581610,.0001781,42.9997,340.2614,253.2547,106.8109,0,U,58058,999,15433,.19495E-4,.274E-5,0
STARLINK-30582,2023-158J,2026-07-23T10:16:08.832864,15.27574095,.0002081,43.0045,340.1056,262.9563,97.1052,0,U,58059,999,15433,-.15578E-4,-.691E-5,0
STARLINK-30558,2023-158K,2026-07-23T17:41:15.440064,15.27552893,.0001307,43.0040,338.9739,280.4117,79.6587,0,U,58060,999,15437,.1549E-3,.3999E-4,0
STARLINK-30579,2023-158L,2026-07-23T14:44:45.310848,15.27562143,.0001905,43.0041,313.6180,276.3141,83.7493,0,U,58061,999,15465,-.41002E-4,-.139E-4,0
