STARLINK-30518          
1 58029U 23156B   26204.83335647  .00056612  00000+0  16756-2 0  9990
2 58029  53.1595 165.8174 0000661 112.6266 220.2693 15.34370842  5795
STARLINK-30549          
1 58030U 23156C   26204.87175221  .00253323  00000+0  79657-2 0  9993
2 58030  53.1599 165.8161 0001461  87.0511 273.0658 15.31440293157110
STARLINK-30556          
1 58031U 23156D   26204.34611340 -.00000140  00000+0  70061-5 0  9994
2 58031  53.1601 175.9186 0001292  97.0573 263.0576 15.34394272156963
STARLINK-30561          
1 58032U 23156E   26204.32557733  .00000447  00000+0  24368-4 0  9995
2 58032  53.1620 168.1009 0001609  81.1562 278.9622 15.34394201157080
STARLINK-30562          
1 58033U 23156F   26204.52361910 -.00000763  00000+0 -13657-4 0  9990
2 58033  53.1572 256.9564 0001424  91.6190 268.4974 15.30185393155838
STARLINK-30565          
1 58034U 23156G   26204.18899919  .00002888  00000+0  96636-4 0  9994
2 58034  53.1629 168.6773 0001651  86.9169 273.2023 15.34379900157067
STARLINK-30438          
1 58035U 23156H   26204.89684602  .00003321  00000+0  12422-3 0  9997
2 58035  53.1593 165.4372 0001183  87.4553 272.6583 15.30194308157125
STARLINK-30437          
1 58036U 23156J   26204.18681464 -.00000814  00000+0 -15369-4 0  9993
2 58036  53.1600 168.8251 0001405 107.7075 252.4079 15.30197125157014
STARLINK-30533          
1 58037U 23156K   26204.32889326  .00031850  00000+0  94976-3 0  9999
2 58037  53.1579 256.4479 0001094  90.3780 269.7348 15.34400566155827
STARLINK-30560          
1 58038U 23156L   26204.26837797 -.00000474  00000+0 -38881-5 0  9993
2 58038  53.1602 165.7806 0001448 107.5333 252.5826 15.30200441157064
STARLINK-30555          
1 58040U 23156N   26204.55369131 -.00003383  00000+0 -89145-4 0  9990
2 58040  53.1585 255.0270 0000894  95.1487 264.9618 15.34368453155865
STARLINK-30542          
1 58041U 23156P   26204.86977198 -.00000381  00000+0 -12680-6 0  9990
2 58041  53.1616 165.4419 0001470  78.7475 281.3693 15.34387528157160
STARLINK-30563          
1 58042U 23156Q   26204.89098330  .00003436  00000+0  12807-3 0  9996
2 58042  53.1595 163.1137 0001255  86.4846 273.6298 15.30201938157204
STARLINK-30564          
1 58043U 23156R   26204.83335647  .00046565  00000+0  14205-2 0  9999
2 58043  53.1589 166.0324 0001174  76.5782  54.5518 15.33501671  5806
STARLINK-30547          
1 58044U 23156S   26204.57050463 -.00000995  00000+0 -18344-4 0  9990
2 58044  53.1594 255.0842 0001122  75.3182 284.7945 15.34383736155865
STARLINK-30550          
1 58045U 23156T   26204.67118079 -.00001314  00000+0 -27749-4 0  9995
2 58045  53.1604  88.4159 0002031  92.4291 267.6944 15.34381004158215
STARLINK-30548          
1 58046U 23156U   26204.54736238 -.00000617  00000+0 -71224-5 0  9998
2 58046  53.1574 254.9891 0001095  76.1462 283.9662 15.34387376155812
STARLINK-30529          
1 58047U 23156V   26204.34826590 -.00041936  00000+0 -12402-2 0  9997
2 58047  53.1596 257.9861 0001334 130.3474 229.7645 15.34316437155751
STARLINK-30554          
1 58048U 23156W   26204.83335647 -.00023051  00000+0 -69106-3 0  9992
2 58048  53.1593 255.6073 0001212  91.4813 134.8936 15.33577884  5801
STARLINK-30568          
1 58051U 23158A   26204.42161213  .00000386  00000+0  23567-4 0  9995
2 58051  43.0067 340.9132 0001833 176.1255 183.9612 15.27557226154311
STARLINK-30575          
1 58052U 23158B   26204.41775848 -.00001322  00000+0 -38527-4 0  9995
2 58052  43.0022 340.8895 0001024 272.8960  87.1775 15.27574195154327
STARLINK-30577          
1 58053U 23158C   26204.45101856  .00000186  00000+0  16276-4 0  9994
2 58053  43.0026 340.2623 0001130 257.3648 102.7077 15.27569560154334
STARLINK-30566          
1 58054U 23158D   26204.70487912  .00036999  00000+0  13490-2 0  9997
2 58054  43.0023 338.7478 0001659 295.1514  64.9165 15.27538267154371
STARLINK-30544          
1 58055U 23158E   26204.43174514 -.00001091  00000+0 -30112-4 0  9998
2 58055  43.0045 340.1361 0002902 296.0318  64.0235 15.27572629154333
STARLINK-30553          
1 58056U 23158F   26204.70742801 -.00000346  00000+0 -30608-5 0  9992
2 58056  43.0036 338.7629 0001182 252.4037 107.6686 15.27573451154379
STARLINK-30541          
1 58057U 23158G   26204.70100222 -.00001026  00000+0 -27759-4 0  9996
2 58057  43.0030 338.7153 0001222 224.7936 135.2817 15.27571817154378
STARLINK-30573          
1 58058U 23158H   26204.44972166  .00000274  00000+0  19495-4 0  9992
2 58058  42.9997 340.2614 0001781 253.2547 106.8109 15.27581610154330
STARLINK-30582          
1 58059U 23158J   26204.42788001 -.00000691  00000+0 -15578-4 0  9997
2 58059  43.0045 340.1056 0002081 262.9563  97.1052 15.27574095154333
STARLINK-30558          
1 58060U 23158K   26204.73698426  .00003999  00000+0  15490-3 0  9998
2 58060  43.0040 338.9739 0001307 280.4117  79.6587 15.27552893154377
STARLINK-30579          
1 58061U 23158L   26204.61441332 -.00001390  00000+0 -41002-4 0  9992
2 58061  43.0041 313.6180 0001905 276.3141  83.7493 15.27562143154656
